{
"type": "FeatureCollection",
"generator": "overpass-turbo",
"copyright": "The data included in this document is from www.openstreetmap.org. The data is made available under ODbL.",
"timestamp": "2025-11-02T05:48:30Z",
"name": "Main_Settlements_Karakalpak",
"features": [
{ "type": "Feature", "id": "node/245552720", "properties": { "@id": "node/245552720", "addr:country": "UZ", "addr:postcode": "230100", "addr:region": "Qaraqalpaqstan Respublikası", "alt_name": "Karakalpak", "capital": "4", "is_in:country": "Karakalpakstan, Uzbekistan, Asia", "name": "Nókis", "name:af": "Nukus", "name:ar": "نكوص", "name:az": "Nukus", "name:ba": "Нөкөс", "name:be": "Нукус", "name:bg": "Нукус", "name:bs": "Nukus", "name:ca": "Nukus", "name:ce": "Нукус", "name:cs": "Nukus", "name:cv": "Нукус", "name:da": "Nukus", "name:de": "Nukus", "name:el": "Νουκούς", "name:en": "Nukus", "name:eo": "Nukus", "name:es": "Nukus", "name:et": "Nukus", "name:eu": "Nukus", "name:fa": "نوکوس", "name:fi": "Nukus", "name:fr": "Noukous", "name:he": "נוקוס", "name:hi": "नूकूस", "name:hu": "Noʻkis", "name:hy": "Նուկուս", "name:id": "Nukus", "name:ie": "Nukus", "name:it": "Nukus", "name:ja": "ヌクス", "name:ka": "ნუქუსი", "name:kaa": "Nókis", "name:kaa-cyr": "Нөкис", "name:ki": "Nukus", "name:kk": "Нөкiс", "name:ko": "누쿠스", "name:ky": "Нукус", "name:lt": "Nukusas", "name:lv": "Nukusa", "name:ml": "നൂക്കൂസ്", "name:nb": "Nukus", "name:nl": "Nukus", "name:os": "Нукус", "name:pa": "ਨੁਕੁਸ", "name:pl": "Nukus", "name:ps": "نوکوس", "name:pt": "Nucus", "name:ro": "Nukus", "name:ru": "Нукус", "name:sr": "Нукус", "name:sv": "Nukus", "name:tg": "Нуқус", "name:th": "เนอกึส", "name:tk": "Nöküs", "name:tl": "Nukus", "name:tr": "Nukus", "name:tt": "Нөкес", "name:uk": "Нукус", "name:ur": "نوکوس", "name:uz": "Nukus", "name:vi": "Nukus", "name:zh": "努库斯", "note": "population source https://qqavtojol.uz/2023/4958/", "place": "city", "population": "335491", "population:date": "01.04.2023", "website": "https://nukus.uz/", "wikidata": "Q489898", "wikipedia": "kaa:Nókis", "wikipedia:kaa": "Nókis", "wikipedia:uz": "Nukus" }, "geometry": { "type": "Point", "coordinates": [ 59.6176603, 42.4600229 ] } },
{ "type": "Feature", "id": "node/246332769", "properties": { "@id": "node/246332769", "addr:country": "UZ", "addr:region": "Qaraqalpaqstan Respublikası", "alt_name": "Biruniy", "capital": "6", "name": "Beruniy", "name:ar": "بيروني", "name:en": "Beruniy", "name:fa": "بیرونی", "name:fr": "Beruni", "name:ja": "ベルニー", "name:ru": "Беруни", "name:uz": "Beruniy", "old_name": "Qyat;Shabbaz", "old_name:en": "Shabbaz", "old_name:ru": "Кят;Шаббаз", "place": "town", "population": "60712", "wikidata": "Q18242285", "wikipedia": "kaa:Beruniy" }, "geometry": { "type": "Point", "coordinates": [ 60.7496642, 41.6944863 ] } },
{ "type": "Feature", "id": "node/246335684", "properties": { "@id": "node/246335684", "addr:city": "Moynaq", "addr:country": "UZ", "addr:postcode": "230800", "addr:region": "Qaraqalpaqstan Respublikası", "capital": "6", "is_in": "Uzbekistan, Qoraqalpogiston", "name": "Moynaq", "name:ar": "مويناق", "name:en": "Moynaq", "name:fa": "مویناق", "name:ja": "モイナク", "name:kaa": "Moynaq", "name:ru": "Муйнак", "name:uz": "Mo`ynoq", "place": "town", "population": "13524", "wikidata": "Q750989", "wikipedia": "kaa:Moynaq" }, "geometry": { "type": "Point", "coordinates": [ 59.0297467, 43.7643276 ] } },
{ "type": "Feature", "id": "node/246338116", "properties": { "@id": "node/246338116", "addr:country": "UZ", "addr:postcode": "230700", "addr:region": "Qaraqalpaqstan Respublikası", "capital": "6", "is_in": "Uzbekistan, Qoraqalpogiston", "name": "Mańǵıt", "name:ar": "منغيت", "name:en": "Manghit", "name:fa": "منغیت", "name:ja": "マンギト", "name:ru": "Мангит", "name:uz": "Mang`it", "place": "town", "population": "49200", "wikidata": "Q3544447", "wikipedia": "kaa:Mańǵıt" }, "geometry": { "type": "Point", "coordinates": [ 60.0625143, 42.116169 ] } },
{ "type": "Feature", "id": "node/246341040", "properties": { "@id": "node/246341040", "addr:country": "UZ", "addr:postcode": "231200", "addr:region": "Qaraqalpaqstan Respublikası", "capital": "6", "int_name": "Turtkul", "name": "Tórtkúl", "name:ar": "تورتكول", "name:en": "Turtkul", "name:fa": "تورت‌کول", "name:fr": "Turtkul", "name:ja": "トゥルトクル", "name:kaa": "Tórtkúl", "name:kaa-Arab": "ٴتورت‌كۇل", "name:kaa-Cyrl": "Төрткүл", "name:kaa-Latn": "Tórtkúl", "name:kk": "Төрткөл", "name:kk-Arab": "تورتكول", "name:kk-Cyrl": "Төрткөл", "name:kk-Latn": "Törtköl", "name:ml": "തുർത്കുൽ", "name:ru": "Турткуль", "name:uz": "Toʻrtkoʻl", "name:uz-Arab": "تۉرت‌کۉل", "name:uz-Cyrl": "Тўрткўл", "name:uz-Latn": "Toʻrtkoʻl", "name:zh": "图尔特库里", "old_name": "Shoraxan;Petroaleksandrovsk", "old_name:ru": "Шорахан;Петроалександровск", "place": "city", "population": "62131", "wikidata": "Q65450049", "wikipedia": "ru:Tortkul" }, "geometry": { "type": "Point", "coordinates": [ 61.0002405, 41.5544131 ] } },
{ "type": "Feature", "id": "node/246342584", "properties": { "@id": "node/246342584", "addr:country": "UZ", "addr:postcode": "231400", "addr:region": "Qaraqalpaqstan Respublikası", "capital": "6", "name": "Shımbay", "name:ar": "جيمباي", "name:en": "Chimbay", "name:fa": "چیمبای", "name:hi": "चीम्बाई", "name:ja": "チムバイ", "name:ru": "Чимбай", "name:uz": "Chimboy", "old_name": "Shax-Temir", "old_name:ru": "Шах-Темир", "place": "town", "population": "53301", "wikidata": "Q1073108", "wikipedia": "kaa:Shımbay", "wikipedia:ru": "ru:Чимбай" }, "geometry": { "type": "Point", "coordinates": [ 59.7785397, 42.933726 ] } },
{ "type": "Feature", "id": "node/246343304", "properties": { "@id": "node/246343304", "addr:country": "UZ", "addr:postcode": "231500", "addr:region": "Qaraqalpaqstan Respublikası", "capital": "6", "ele": "67", "int_name": "Shumanay", "is_in": "Uzbekistan, Qoraqalpogiston, Shumanoy", "name": "Shomanay", "name:ar": "شومناي", "name:ja": "シュマナイ", "name:ru": "Шуманай", "place": "town", "population": "22400", "wikidata": "Q2450654", "wikipedia": "kaa:Shomanay" }, "geometry": { "type": "Point", "coordinates": [ 58.9297535, 42.6372283 ] } },
{ "type": "Feature", "id": "node/246346348", "properties": { "@id": "node/246346348", "addr:country": "UZ", "addr:postcode": "231300", "addr:region": "Qaraqalpaqstan Respublikası", "alt_name": "Хожели;Ходжеили;Ходжейли;Xojeli", "alt_name:en": "Khojeili;Khodzheili;Khodzheyli", "capital": "6", "gns:ufi": "-2577392", "int_name": "Khujayli", "is_in": "Uzbekistan, Qoraqalpogiston", "name": "Xojeli", "name:ar": "خوجيلي", "name:en": "Khujayli", "name:fa": "خواجه‌ایلی", "name:hi": "खोजाइली", "name:ja": "ホジェリ", "name:kaa": "Xojeli", "name:ru": "Ходжейли", "name:tk": "Hojeýli", "name:uk": "Ходжейлі", "name:uz": "Xo`jayli", "place": "city", "population": "70827", "wikidata": "Q1400173", "wikipedia": "kaa:Xojeli" }, "geometry": { "type": "Point", "coordinates": [ 59.452518, 42.4132703 ] } },
{ "type": "Feature", "id": "node/246347371", "properties": { "@id": "node/246347371", "addr:country": "UZ", "addr:postcode": "230600", "addr:region": "Qaraqalpaqstan Respublikası", "capital": "6", "ele": "76", "int_name": "Kungrad", "is_in": "Uzbekistan, Qoraqalpogiston", "name": "Qońırat", "name:en": "Kungrad", "name:fa": "قونغیرات", "name:ja": "クンギラド", "name:kaa": "Qońırat", "name:kaa-cyr": "Қоңырат", "name:ru": "Кунград", "name:uk": "Кунґрад", "name:uz": "Qo`ng`irot", "name:uz-cyr": "Қўнғирот", "old_name:ru": "Железнодорожный", "place": "town", "population": "80100", "wikidata": "Q1657994", "wikipedia": "kaa:Qon'i'rat" }, "geometry": { "type": "Point", "coordinates": [ 58.8475388, 43.0457254 ] } },
{ "type": "Feature", "id": "node/246523268", "properties": { "@id": "node/246523268", "addr:country": "UZ", "addr:postcode": "231100", "addr:region": "Qaraqalpaqstan Respublikası", "capital": "6", "int_name": "Takhtakupyr", "is_in": "Uzbekistan, Qoraqalpogiston", "name": "Taxtakópir", "name:ar": "تختكوبير", "name:fa": "تخته‌کوپیر", "name:kaa-Arab": "تاختاكوپیر", "name:kaa-Cyrl": "Тахтакөпир", "name:kaa-Latn": "Taxtakópir", "name:kk": "Тақтакөпір", "name:kk-Arab": "تاقتاكوپىر", "name:kk-Cyrl": "Тақтакөпір", "name:kk-Latn": "Taqtaköpır", "name:ru": "Тахтакупыр", "name:uk": "Тахтакупир", "name:uz": "Taxtako`pir", "name:uz-Arab": "تخته‌کۉپیر", "name:uz-Cyrl": "Тахтакўпир", "name:uz-Latn": "Taxtakoʻpir", "place": "town", "population": "16633", "wikidata": "Q1993775", "wikipedia": "kaa:Taxtako'pir" }, "geometry": { "type": "Point", "coordinates": [ 60.2893338, 43.0207211 ] } },
{ "type": "Feature", "id": "node/246831012", "properties": { "@id": "node/246831012", "addr:country": "UZ", "addr:region": "Qaraqalpaqstan Respublikası", "is_in": "Uzbekistan, Qoraqalpogiston", "name": "Jaslıq", "name:en": "Zhaslyk", "name:fa": "جاسلیق", "name:ru": "Жаслык", "name:uk": "Жаслик", "place": "town", "population": "4729", "wikidata": "Q3660797", "wikipedia": "ru:Жаслык" }, "geometry": { "type": "Point", "coordinates": [ 57.4931167, 43.9731097 ] } },
{ "type": "Feature", "id": "node/247159139", "properties": { "@id": "node/247159139", "addr:country": "UZ", "addr:postcode": "230500", "addr:region": "Qaraqalpaqstan Respublikası", "capital": "6", "is_in": "O'zbekiston,Qaraqalpaqstan Respublikasi", "name": "Kegeyli", "name:ar": "كيغلي", "name:en": "Kegeyli", "name:es": "Kegeyli", "name:fr": "Kegeyli", "name:ru": "Кегейли", "name:uk": "Кеґейлі", "place": "town", "population": "12733", "wikidata": "Q3077975", "wikipedia": "en:Kegeyli" }, "geometry": { "type": "Point", "coordinates": [ 59.6115544, 42.7746507 ] } },
{ "type": "Feature", "id": "node/1516291435", "properties": { "@id": "node/1516291435", "addr:country": "UZ", "addr:postcode": "231000", "addr:region": "Qaraqalpaqstan Respublikası", "alt_name": "Тахиаташ", "alt_name:en": "Takhiatash", "capital": "6", "gns:dsg": "ADM2: second-order administrative division", "gns:ufi": "409635", "is_in": "Uzbekistan, Karakalpakstan", "name": "Taqıyatas", "name:ar": "تخيتاش", "name:en": "Takhiatosh", "name:fa": "تخیه‌تاش", "name:ja": "タヒアタシュ", "name:ru": "Тахиаташ", "place": "town", "population": "52500", "source": "NGA GNS", "wikidata": "Q951239", "wikipedia": "ru:Тахиаташ" }, "geometry": { "type": "Point", "coordinates": [ 59.5791967, 42.3346554 ] } },
{ "type": "Feature", "id": "node/1585841799", "properties": { "@id": "node/1585841799", "addr:country": "UZ", "addr:postcode": "230300", "addr:region": "Qaraqalpaqstan Respublikası", "alt_name": "Ленинобод;Ленинабад", "alt_name:en": "Leninobod;Qanlikul;Leninabad", "capital": "6", "gns:ufi": "-2577969", "is_in": "Uzbekistan, Qoraqalpogiston", "name": "Qanlıkól", "name:ar": "قانليكول", "name:en": "Qanlikul", "name:ru": "Канлыкуль", "old_name": "Leninabad", "old_name:ru": "Ленинабад", "place": "town", "population": "12169", "source": "NGA GNS", "wikidata": "Q3661518", "wikipedia": "kaa:Qanliko'l" }, "geometry": { "type": "Point", "coordinates": [ 59.0064653, 42.8361463 ] } },
{ "type": "Feature", "id": "node/1685839457", "properties": { "@id": "node/1685839457", "addr:country": "UZ", "addr:region": "Qaraqalpaqstan Respublikası", "alt_name": "Karakalpak", "alt_name:en": "Oqmanghit;Akmangit", "capital": "6", "name": "Aqmanǵıt", "name:en": "Akmangit", "name:ru": "Акмангит", "place": "town", "population": "10040", "source": "NGA GNS", "website": "http://nukus.rk.uz/", "wikidata": "Q2603584", "wikipedia": "kaa:No'kis rayonı" }, "geometry": { "type": "Point", "coordinates": [ 59.5380866, 42.5979127 ] } },
{ "type": "Feature", "id": "node/1687021609", "properties": { "@id": "node/1687021609", "addr:country": "UZ", "addr:region": "Qaraqalpaqstan Respublikası", "capital": "6", "is_in": "Uzbekistan, Qoraqolpog'iston, Chimboy", "name": "Qaraózek", "name:ar": "قره أوزاك", "name:fa": "قره‌اوزک", "name:kaa": "Qaraózek", "name:kaa-Arab": "قارااوزىُك", "name:kaa-Cyrl": "Қараөзек", "name:kaa-Latn": "Qaraózek", "name:kk": "Қараөзек", "name:kk-Arab": "قاراوزەك", "name:kk-Cyrl": "Қараөзек", "name:kk-Latn": "Qaraözek", "name:ru": "Караузяк", "name:uz": "Qoraoʻzak", "name:uz-Arab": "قاره‌اۉزک", "name:uz-Cyrl": "Қораўзак", "name:uz-Latn": "Qoraoʻzak", "place": "town", "population": "15542", "wikidata": "Q3660783", "wikipedia": "kaa:Qarao'zek" }, "geometry": { "type": "Point", "coordinates": [ 60.0160133, 43.028692 ] } }
]
}
